TEST SAT SDP 001
1 11801U          80230.29629788  .01431103  00000-0  14311-1 0     2
2 11801  46.7916 230.4354 7318036  47.4722  10.4117  2.28537848     2

